[{"OBJECT_NAME":"STARLINK-34719","OBJECT_ID":"2025-158M","EPOCH":"2026-03-09T12:42:55.980576","MEAN_MOTION":15.05651936,"ECCENTRICITY":0.00025731,"INCLINATION":97.6018,"RA_OF_ASC_NODE":293.9582,"ARG_OF_PERICENTER":93.7778,"MEAN_ANOMALY":266.3743,"EPHEMERIS_TYPE":0,"CLASSIFICATION_TYPE":"U","NORAD_CAT_ID":64943,"ELEMENT_SET_NO":999,"REV_AT_EPOCH":3533,"BSTAR":0.00016005727,"MEAN_MOTION_DOT":2.25e-5,"MEAN_MOTION_DDOT":0},{"OBJECT_NAME":"ARIANE 1 DEB","OBJECT_ID":"1979-104J","EPOCH":"2026-03-08T05:24:14.133312","MEAN_MOTION":10.45586815,"ECCENTRICITY":0.24247109,"INCLINATION":17.8139,"RA_OF_ASC_NODE":117.4319,"ARG_OF_PERICENTER":198.4074,"MEAN_ANOMALY":151.0711,"EPHEMERIS_TYPE":0,"CLASSIFICATION_TYPE":"U","NORAD_CAT_ID":25767,"ELEMENT_SET_NO":999,"REV_AT_EPOCH":37261,"BSTAR":0.0065339867,"MEAN_MOTION_DOT":0.00103114,"MEAN_MOTION_DDOT":0}]
